IRIDIUM 155             
1 43573U 18061E   25062.59220125  .00000082  00000+0  22255-4 0  9998
2 43573  86.3913 253.2926 0002333  84.7849 275.3613 14.34218807345900
IRIDIUM 154             
1 43574U 18061F   25062.57317615 -.00000051  00000+0 -25192-4 0  9999
2 43574  86.3921 253.4110 0001866  90.3452 269.7958 14.34217010345959
IRIDIUM 163             
1 43575U 18061G   25062.55414816 -.00000022  00000+0 -14865-4 0  9992
2 43575  86.3918 253.3491 0002051  92.6801 267.4629 14.34217280345923
IRIDIUM 156             
1 43576U 18061H   25062.59854652 -.00000025  00000+0 -16146-4 0  9990
2 43576  86.3918 253.3373 0002124  79.9105 280.2330 14.34217313345928
IRIDIUM 164             
1 43577U 18061J   25062.57951787 -.00000043  00000+0 -22329-4 0  9996
2 43577  86.3920 253.3782 0001697  89.4973 270.6418 14.34217131345961
IRIDIUM 159             
1 43578U 18061K   25062.54780398  .00000036  00000+0  57691-5 0  9993
2 43578  86.3913 253.3379 0002003  96.4838 263.6586 14.34218062345924
IRIDIUM 180             
1 43922U 19002A   25062.40776611  .00000136  00000+0  41648-4 0  9995
2 43922  86.4034 190.3233 0002161  97.3651 262.7791 14.34218042321514
IRIDIUM 176             
1 43923U 19002B   25062.41464781  .00002101  00000+0  32919-3 0  9993
2 43923  86.6160 190.3217 0002305 112.0763 248.0699 14.72266070329987
IRIDIUM 168             
1 43924U 19002C   25062.40142468  .00000053  00000+0  11763-4 0  9997
2 43924  86.4035 190.3899 0002059  99.4939 260.6490 14.34216805321498
IRIDIUM 173             
1 43925U 19002D   25062.38873963  .00000076  00000+0  20006-4 0  9991
2 43925  86.4030 190.3034 0002223  95.7602 264.3847 14.34216627321471
IRIDIUM 169             
1 43926U 19002E   25062.49907258  .00000822  00000+0  26238-3 0  9990
2 43926  86.4228 221.8367 0003641  86.1673 273.9941 14.38602769322558
IRIDIUM 172             
1 43927U 19002F   25062.38239601  .00000044  00000+0  85197-5 0  9996
2 43927  86.4034 190.3126 0002034 101.0443 259.0982 14.34216094321483
IRIDIUM 175             
1 43928U 19002G   25062.27349390  .00002194  00000+0  34412-3 0  9992
2 43928  86.1554 148.9566 0002731  72.4369 287.7145 14.72229998329955
IRIDIUM 171             
1 43929U 19002H   25062.43313587  .00000208  00000+0  67348-4 0  9999
2 43929  86.4041 190.5451 0001689  87.7414 272.3976 14.34216458321484
IRIDIUM 170             
1 43930U 19002J   25062.42084555  .00002149  00000+0  33702-3 0  9992
2 43930  86.6160 190.3244 0002405  84.3403 275.8088 14.72237141329996
IRIDIUM 167             
1 43931U 19002K   25062.42678106  .00000112  00000+0  32877-4 0  9995
2 43931  86.4034 190.3124 0002125  84.8308 275.3130 14.34212980321481
IRIDIUM 181             
1 56726U 23068S   25062.56787762  .00000252  00000+0  68986-4 0  9997
2 56726  86.4455 253.3475 0001871  76.9494 283.1916 14.43307699 94554
IRIDIUM 177             
1 56727U 23068T   25062.40980374  .00002947  00000+0  38439-3 0  9997
2 56727  86.2026 192.2885 0002294  87.8776 272.2708 14.80230732 96720
IRIDIUM 174             
1 56728U 23068U   25062.40437074  .00002977  00000+0  38834-3 0  9994
2 56728  86.2031 192.4150 0001592  92.5296 267.6107 14.80227703 96729
IRIDIUM 178             
1 56729U 23068V   25062.46653674  .00002839  00000+0  37022-3 0  9992
2 56729  86.5776 222.0925 0001233  95.8795 264.2567 14.80233203 96737
IRIDIUM 179             
1 56730U 23068W   25062.52870256  .00001136  00000+0  14605-3 0  9999
2 56730  86.6773 229.4606 0001994  96.2447 263.9002 14.80244516 96747
